H1 CPF 01  gfz 2021 06 11 00  6621 terrasarx 
H2 0702601  6201 31698    2021 06 11 00 59 42 2021 06 16 00 00 42   120 1 1  0 0 0
H9
10 0 59377  66222.000000  0    3035698.932    514160.946  -6169271.387
10 0 59377  66342.000000  0    3823457.866    346016.729  -5727001.582
10 0 59377  66462.000000  0    4541759.357    158690.016  -5184645.175
10 0 59377  66582.000000  0    5177765.814    -43243.543  -4551592.721
10 0 59377  66702.000000  0    5720123.679   -254736.063  -3838835.002
10 0 59377  66822.000000  0    6159175.030   -470381.694  -3058781.168
10 0 59377  66942.000000  0    6487141.322   -684541.944  -2225049.983
10 0 59377  67062.000000  0    6698274.532   -891479.222  -1352234.907
10 0 59377  67182.000000  0    6788969.830  -1085494.944   -455647.469
10 0 59377  67302.000000  0    6757837.068  -1261069.368    448955.318
10 0 59377  67422.000000  0    6605728.832  -1412999.526   1345655.159
10 0 59377  67542.000000  0    6335722.878  -1536532.066   2218660.985
10 0 59377  67662.000000  0    5953059.865  -1627486.596   3052596.909
10 0 59377  67782.000000  0    5465036.389  -1682366.135   3832780.711
10 0 59377  67902.000000  0    4880858.086  -1698453.469   4545487.420
10 0 59377  68022.000000  0    4211456.733  -1673889.315   5178192.689
10 0 59377  68142.000000  0    3469277.002  -1607730.835   5719792.711
10 0 59377  68262.000000  0    2668035.727  -1499990.468   6160796.571
10 0 59377  68382.000000  0    1822461.341  -1351653.796   6493486.612
10 0 59377  68502.000000  0     948018.577  -1164676.677   6712048.092
10 0 59377  68622.000000  0      60622.319   -941960.517   6812665.109
10 0 59377  68742.000000  0    -823652.631   -687306.818   6793581.839
10 0 59377  68862.000000  0   -1688861.347   -405352.366   6655130.555
10 0 59377  68982.000000  0   -2519474.790   -101485.114   6399726.157
10 0 59377  69102.000000  0   -3300657.715    218257.768   6031827.617
10 0 59377  69222.000000  0   -4018535.416    547307.951   5557865.911
10 0 59377  69342.000000  0   -4660444.791    878698.165   4986137.641
10 0 59377  69462.000000  0   -5215164.431   1205206.704   4326665.830
10 0 59377  69582.000000  0   -5673119.314   1519511.532   3591028.191
10 0 59377  69702.000000  0   -6026554.561   1814350.344   2792156.243
10 0 59377  69822.000000  0   -6269675.758   2082683.242   1944108.242
10 0 59377  69942.000000  0   -6398752.391   2317854.259   1061819.041
10 0 59377  70062.000000  0   -6412180.248   2513748.022    160830.270
10 0 59377  70182.000000  0   -6310500.150   2664936.299   -742991.856
10 0 59377  70302.000000  0   -6096373.504   2766811.105  -1633744.960
10 0 59377  70422.000000  0   -5774515.400   2815701.619  -2495778.819
10 0 59377  70542.000000  0   -5351585.802   2808971.460  -3313978.188
10 0 59377  70662.000000  0   -4836042.839   2745093.026  -4074031.545
10 0 59377  70782.000000  0   -4237963.557   2623698.680  -4762681.234
10 0 59377  70902.000000  0   -3568836.534   2445607.382  -5367950.137
10 0 59377  71022.000000  0   -2841333.071   2212827.481  -5879341.065
10 0 59377  71142.000000  0   -2069062.743   1928536.040  -6288009.098
10 0 59377  71262.000000  0   -1266315.219   1597034.328  -6586903.692
10 0 59377  71382.000000  0    -447797.004   1223681.357  -6770877.963
10 0 59377  71502.000000  0     371633.459    814806.985  -6836767.527
10 0 59377  71622.000000  0    1177228.117    377606.667  -6783439.632
10 0 59377  71742.000000  0    1954609.774    -79982.672  -6611811.944
10 0 59377  71862.000000  0    2690022.712   -549423.194  -6324837.313
10 0 59377  71982.000000  0    3370572.091  -1021730.939  -5927459.026
10 0 59377  72102.000000  0    3984447.927  -1487642.709  -5426533.470
10 0 59377  72222.000000  0    4521131.669  -1937793.633  -4830723.973
10 0 59377  72342.000000  0    4971581.864  -2362903.304  -4150362.053
10 0 59377  72462.000000  0    5328393.801  -2753965.315  -3397278.503
10 0 59377  72582.000000  0    5585931.042  -3102436.862  -2584605.823
10 0 59377  72702.000000  0    5740424.546  -3400424.167  -1726553.223
10 0 59377  72822.000000  0    5790035.854  -3640859.082   -838159.152
10 0 59377  72942.000000  0    5734883.195  -3817663.125     64975.016
10 0 59377  73062.000000  0    5577028.210  -3925893.617    966964.766
10 0 59377  73182.000000  0    5320423.615  -3961869.374   1851930.265
10 0 59377  73302.000000  0    4970821.221  -3923269.568   2704286.024
10 0 59377  73422.000000  0    4535643.755  -3809204.346   3509022.827
10 0 59377  73542.000000  0    4023825.553  -3620256.383   4251977.941
10 0 59377  73662.000000  0    3445624.943  -3358493.004   4920088.868
10 0 59377  73782.000000  0    2812411.446  -3027446.756   5501624.051
10 0 59377  73902.000000  0    2136436.762  -2632066.052   5986386.604
10 0 59377  74022.000000  0    1430592.306  -2178637.944   6365888.730
10 0 59377  74142.000000  0     708159.778  -1674685.020   6633494.156
10 0 59377  74262.000000  0     -17440.589  -1128837.839   6784528.158
10 0 59377  74382.000000  0    -732899.361   -550685.271   6816353.895
10 0 59377  74502.000000  0   -1425260.892     49394.341   6728414.940
10 0 59377  74622.000000  0   -2082156.942    660419.040   6522244.509
10 0 59377  74742.000000  0   -2692027.086   1271003.444   6201440.575
10 0 59377  74862.000000  0   -3244322.863   1869569.876   5771607.238
10 0 59377  74982.000000  0   -3729692.886   2444567.607   5240263.407
10 0 59377  75102.000000  0   -4140145.974   2984697.333   4616717.624
10 0 59377  75222.000000  0   -4469188.361   3479135.513   3911910.088
10 0 59377  75342.000000  0   -4711932.730   3917753.996   3138224.097
10 0 59377  75462.000000  0   -4865175.225   4291330.800   2309269.401
10 0 59377  75582.000000  0   -4927439.332   4591747.960   1439641.327
10 0 59377  75702.000000  0   -4898984.347   4812169.472    544658.046
10 0 59377  75822.000000  0   -4781778.921   4947193.823   -359916.260
10 0 59377  75942.000000  0   -4579440.926   4992980.060  -1258157.764
10 0 59377  76062.000000  0   -4297141.238   4947342.169  -2134274.066
10 0 59377  76182.000000  0   -3941477.052   4809808.728  -2972889.279
10 0 59377  76302.000000  0   -3520318.344   4581646.900  -3759319.955
10 0 59377  76422.000000  0   -3042630.551   4265850.944  -4479832.994
10 0 59377  76542.000000  0   -2518280.325   3867097.209  -5121881.520
10 0 59377  76662.000000  0   -1957829.856   3391668.668  -5674315.999
10 0 59377  76782.000000  0   -1372322.958   2847349.421  -6127569.735
10 0 59377  76902.000000  0    -773067.093   2243290.675  -6473814.120
10 0 59377  77022.000000  0    -171416.877   1589853.219  -6707081.749
10 0 59377  77142.000000  0     421436.800    898429.271  -6823358.770
10 0 59377  77262.000000  0     994669.610    181246.668  -6820647.257
10 0 59377  77382.000000  0    1538017.612   -548843.498  -6698996.053
10 0 59377  77502.000000  0    2041956.234  -1278591.911  -6460498.364
10 0 59377  77622.000000  0    2497863.621  -1994585.043  -6109259.842
10 0 59377  77742.000000  0    2898166.738  -2683485.619  -5651335.785
10 0 59377  77862.000000  0    3236468.596  -3332278.641  -5094638.992
10 0 59377  77982.000000  0    3507653.918  -3928518.540  -4448812.725
10 0 59377  78102.000000  0    3707968.733  -4460568.823  -3725073.139
10 0 59377  78222.000000  0    3835075.458  -4917832.843  -2936024.963
10 0 59377  78342.000000  0    3888082.098  -5290971.983  -2095449.175
10 0 59377  78462.000000  0    3867541.538  -5572104.138  -1218063.998
10 0 59377  78582.000000  0    3775421.918  -5754976.050   -319265.762
10 0 59377  78702.000000  0    3615047.536  -5835106.074    585146.770
10 0 59377  78822.000000  0    3391011.525  -5809892.515   1479257.098
10 0 59377  78942.000000  0    3109063.237  -5678684.722   2347320.986
10 0 59377  79062.000000  0    2775970.780  -5442812.732   3174052.598
10 0 59377  79182.000000  0    2399364.260  -5105578.159   3944899.934
10 0 59377  79302.000000  0    1987564.631  -4672205.761   4646305.684
10 0 59377  79422.000000  0    1549401.062  -4149756.381   5265947.914
10 0 59377  79542.000000  0    1094022.538  -3547004.368   5792956.258
10 0 59377  79662.000000  0     630705.827  -2874281.264   6218099.569
10 0 59377  79782.000000  0     168666.368  -2143291.628   6533940.717
10 0 59377  79902.000000  0    -283123.930  -1366905.070   6734959.637
10 0 59377  80022.000000  0    -716109.459   -558928.026   6817645.030
10 0 59377  80142.000000  0   -1122311.746    266143.216   6780552.519
10 0 59377  80262.000000  0   -1494475.906   1093382.540   6624328.022
10 0 59377  80382.000000  0   -1826199.817   1907703.183   6351696.972
10 0 59377  80502.000000  0   -2112044.829   2694132.146   5967419.936
10 0 59377  80622.000000  0   -2347625.674   3438086.142   5478214.345
10 0 59377  80742.000000  0   -2529678.588   4125644.188   4892643.726
10 0 59377  80862.000000  0   -2656107.240   4743813.414   4220974.364
10 0 59377  80982.000000  0   -2726004.160   5280781.847   3474999.748
10 0 59377  81102.000000  0   -2739647.172   5726152.439   2667835.023
10 0 59377  81222.000000  0   -2698470.711   6071152.148   1813685.453
10 0 59377  81342.000000  0   -2605012.937   6308811.930    927593.007
10 0 59377  81462.000000  0   -2462839.048   6434112.814     25165.540
10 0 59377  81582.000000  0   -2276443.281   6444094.174   -877706.115
10 0 59377  81702.000000  0   -2051132.123   6337921.411  -1765138.294
10 0 59377  81822.000000  0   -1792889.735   6116907.164  -2621545.421
10 0 59377  81942.000000  0   -1508230.563   5784487.426  -3431918.451
10 0 59377  82062.000000  0   -1204045.034   5346159.020  -4182089.250
10 0 59377  82182.000000  0    -887441.085   4809376.863  -4858977.257
10 0 59377  82302.000000  0    -565585.305   4183415.873  -5450812.054
10 0 59377  82422.000000  0    -245546.911   3479201.085  -5947330.994
10 0 59377  82542.000000  0      65852.200   2709108.082  -6339947.815
10 0 59377  82662.000000  0     362177.295   1886739.697  -6621888.968
99
